{"fetched_at":"2026-07-19T07:05:16.284Z","source":"https://celestrak.org/NORAD/elements/gp.php?NAME=ICEYE&FORMAT=JSON","constellation":"iceye","records":[{"OBJECT_NAME":"ICEYE-X40","OBJECT_ID":"2024-149CK","EPOCH":"2026-07-18T03:54:22.964256","CLASSIFICATION_TYPE":"U","MEAN_MOTION":14.98084258,"ECCENTRICITY":0.00036494,"INCLINATION":97.6805,"RA_OF_ASC_NODE":275.1599,"ARG_OF_PERICENTER":355.3306,"MEAN_ANOMALY":4.7882,"EPHEMERIS_TYPE":0,"NORAD_CAT_ID":60549,"ELEMENT_SET_NO":999,"REV_AT_EPOCH":10471,"BSTAR":0.00013359194,"MEAN_MOTION_DOT":0.00001523,"MEAN_MOTION_DDOT":0},{"OBJECT_NAME":"ICEYE-X49","OBJECT_ID":"2024-247H","EPOCH":"2026-07-17T08:01:48.831744","CLASSIFICATION_TYPE":"U","MEAN_MOTION":15.13466886,"ECCENTRICITY":0.00013347,"INCLINATION":44.9994,"RA_OF_ASC_NODE":196.3565,"ARG_OF_PERICENTER":239.0218,"MEAN_ANOMALY":121.0529,"EPHEMERIS_TYPE":0,"NORAD_CAT_ID":62384,"ELEMENT_SET_NO":999,"REV_AT_EPOCH":8674,"BSTAR":0.00009597161,"MEAN_MOTION_DOT":0.00001489,"MEAN_MOTION_DDOT":0},{"OBJECT_NAME":"ICEYE-X47","OBJECT_ID":"2024-247N","EPOCH":"2026-07-18T08:47:52.191456","CLASSIFICATION_TYPE":"U","MEAN_MOTION":15.13492282,"ECCENTRICITY":0.00010763,"INCLINATION":44.996,"RA_OF_ASC_NODE":190.4383,"ARG_OF_PERICENTER":8.2168,"MEAN_ANOMALY":351.8727,"EPHEMERIS_TYPE":0,"NORAD_CAT_ID":62389,"ELEMENT_SET_NO":999,"REV_AT_EPOCH":8690,"BSTAR":0.00006786378,"MEAN_MOTION_DOT":0.00000978,"MEAN_MOTION_DDOT":0},{"OBJECT_NAME":"ICEYE-X42","OBJECT_ID":"2025-009CT","EPOCH":"2026-07-18T19:09:17.548992","CLASSIFICATION_TYPE":"U","MEAN_MOTION":14.91827191,"ECCENTRICITY":0.0001315,"INCLINATION":97.7388,"RA_OF_ASC_NODE":277.5425,"ARG_OF_PERICENTER":98.2916,"MEAN_ANOMALY":261.8452,"EPHEMERIS_TYPE":0,"NORAD_CAT_ID":62698,"ELEMENT_SET_NO":999,"REV_AT_EPOCH":8200,"BSTAR":0.000065747,"MEAN_MOTION_DOT":0.00000608,"MEAN_MOTION_DDOT":0},{"OBJECT_NAME":"ICEYE-X41","OBJECT_ID":"2025-009CV","EPOCH":"2026-07-18T18:09:15.094080","CLASSIFICATION_TYPE":"U","MEAN_MOTION":14.96923975,"ECCENTRICITY":0.0000371,"INCLINATION":97.7058,"RA_OF_ASC_NODE":278.8249,"ARG_OF_PERICENTER":199.7918,"MEAN_ANOMALY":160.3289,"EPHEMERIS_TYPE":0,"NORAD_CAT_ID":62700,"ELEMENT_SET_NO":999,"REV_AT_EPOCH":8213,"BSTAR":0.00014452,"MEAN_MOTION_DOT":0.00001602,"MEAN_MOTION_DDOT":0},{"OBJECT_NAME":"ICEYE-X45","OBJECT_ID":"2025-009DA","EPOCH":"2026-07-18T19:09:19.145664","CLASSIFICATION_TYPE":"U","MEAN_MOTION":15.00843796,"ECCENTRICITY":0.0000875,"INCLINATION":97.8411,"RA_OF_ASC_NODE":286.7474,"ARG_OF_PERICENTER":66.6904,"MEAN_ANOMALY":293.4411,"EPHEMERIS_TYPE":0,"NORAD_CAT_ID":62705,"ELEMENT_SET_NO":999,"REV_AT_EPOCH":8242,"BSTAR":0.00035592,"MEAN_MOTION_DOT":0.00004464,"MEAN_MOTION_DDOT":0},{"OBJECT_NAME":"ICEYE-X44","OBJECT_ID":"2025-009DC","EPOCH":"2026-07-18T18:53:47.567904","CLASSIFICATION_TYPE":"U","MEAN_MOTION":14.96178255,"ECCENTRICITY":0.0002299,"INCLINATION":97.7056,"RA_OF_ASC_NODE":278.4152,"ARG_OF_PERICENTER":65.7392,"MEAN_ANOMALY":294.4069,"EPHEMERIS_TYPE":0,"NORAD_CAT_ID":62707,"ELEMENT_SET_NO":999,"REV_AT_EPOCH":10466,"BSTAR":0.00010505,"MEAN_MOTION_DOT":0.00001126,"MEAN_MOTION_DDOT":0},{"OBJECT_NAME":"ICEYE-X48","OBJECT_ID":"2025-052AV","EPOCH":"2026-07-18T17:12:24.459264","CLASSIFICATION_TYPE":"U","MEAN_MOTION":14.98139485,"ECCENTRICITY":0.0004264,"INCLINATION":97.684,"RA_OF_ASC_NODE":91.4196,"ARG_OF_PERICENTER":95.7873,"MEAN_ANOMALY":264.3835,"EPHEMERIS_TYPE":0,"NORAD_CAT_ID":63253,"ELEMENT_SET_NO":999,"REV_AT_EPOCH":7339,"BSTAR":0.00016536,"MEAN_MOTION_DOT":0.00001901,"MEAN_MOTION_DDOT":0},{"OBJECT_NAME":"ICEYE-X50","OBJECT_ID":"2025-052AX","EPOCH":"2026-07-18T19:25:24.875616","CLASSIFICATION_TYPE":"U","MEAN_MOTION":14.95369903,"ECCENTRICITY":0.0003417,"INCLINATION":97.6851,"RA_OF_ASC_NODE":91.0926,"ARG_OF_PERICENTER":94.9276,"MEAN_ANOMALY":265.2335,"EPHEMERIS_TYPE":0,"NORAD_CAT_ID":63255,"ELEMENT_SET_NO":999,"REV_AT_EPOCH":7337,"BSTAR":0.000029856,"MEAN_MOTION_DOT":0.00000273,"MEAN_MOTION_DDOT":0},{"OBJECT_NAME":"ICEYE-X51","OBJECT_ID":"2025-052AZ","EPOCH":"2026-07-18T20:36:53.750880","CLASSIFICATION_TYPE":"U","MEAN_MOTION":15.00887067,"ECCENTRICITY":0.0002076,"INCLINATION":97.7615,"RA_OF_ASC_NODE":94.8997,"ARG_OF_PERICENTER":64.8715,"MEAN_ANOMALY":295.2724,"EPHEMERIS_TYPE":0,"NORAD_CAT_ID":63257,"ELEMENT_SET_NO":999,"REV_AT_EPOCH":7355,"BSTAR":0.00018671,"MEAN_MOTION_DOT":0.00002315,"MEAN_MOTION_DDOT":0},{"OBJECT_NAME":"ICEYE-X46","OBJECT_ID":"2025-052BA","EPOCH":"2026-07-18T06:29:50.149248","CLASSIFICATION_TYPE":"U","MEAN_MOTION":14.95372277,"ECCENTRICITY":0.00016294,"INCLINATION":97.6855,"RA_OF_ASC_NODE":90.5638,"ARG_OF_PERICENTER":80.6198,"MEAN_ANOMALY":279.5207,"EPHEMERIS_TYPE":0,"NORAD_CAT_ID":63258,"ELEMENT_SET_NO":999,"REV_AT_EPOCH":7329,"BSTAR":0.00005000921,"MEAN_MOTION_DOT":0.00000496,"MEAN_MOTION_DDOT":0},{"OBJECT_NAME":"ICEYE-X54","OBJECT_ID":"2025-135AU","EPOCH":"2026-07-18T19:46:44.169312","CLASSIFICATION_TYPE":"U","MEAN_MOTION":14.94742033,"ECCENTRICITY":0.0002322,"INCLINATION":97.7748,"RA_OF_ASC_NODE":313.9463,"ARG_OF_PERICENTER":171.7978,"MEAN_ANOMALY":188.3281,"EPHEMERIS_TYPE":0,"NORAD_CAT_ID":64570,"ELEMENT_SET_NO":999,"REV_AT_EPOCH":5862,"BSTAR":0.000094994,"MEAN_MOTION_DOT":0.00000974,"MEAN_MOTION_DDOT":0},{"OBJECT_NAME":"ICEYE-X52","OBJECT_ID":"2025-135AW","EPOCH":"2026-07-18T19:47:25.977408","CLASSIFICATION_TYPE":"U","MEAN_MOTION":14.93659203,"ECCENTRICITY":0.0001537,"INCLINATION":97.7771,"RA_OF_ASC_NODE":313.731,"ARG_OF_PERICENTER":176.8042,"MEAN_ANOMALY":183.3187,"EPHEMERIS_TYPE":0,"NORAD_CAT_ID":64572,"ELEMENT_SET_NO":999,"REV_AT_EPOCH":5860,"BSTAR":0.000059561,"MEAN_MOTION_DOT":0.00000573,"MEAN_MOTION_DDOT":0},{"OBJECT_NAME":"ICEYE-X56","OBJECT_ID":"2025-135AY","EPOCH":"2026-07-18T19:25:02.242272","CLASSIFICATION_TYPE":"U","MEAN_MOTION":14.95776008,"ECCENTRICITY":0.0001627,"INCLINATION":97.7772,"RA_OF_ASC_NODE":314.526,"ARG_OF_PERICENTER":175.8632,"MEAN_ANOMALY":184.2602,"EPHEMERIS_TYPE":0,"NORAD_CAT_ID":64574,"ELEMENT_SET_NO":999,"REV_AT_EPOCH":5865,"BSTAR":0.0001656,"MEAN_MOTION_DOT":0.00001789,"MEAN_MOTION_DDOT":0},{"OBJECT_NAME":"ICEYE-X57","OBJECT_ID":"2025-135BC","EPOCH":"2026-07-18T19:14:08.196864","CLASSIFICATION_TYPE":"U","MEAN_MOTION":15.00854974,"ECCENTRICITY":0.0002117,"INCLINATION":97.8032,"RA_OF_ASC_NODE":316.3703,"ARG_OF_PERICENTER":57.0951,"MEAN_ANOMALY":303.0476,"EPHEMERIS_TYPE":0,"NORAD_CAT_ID":64578,"ELEMENT_SET_NO":999,"REV_AT_EPOCH":5876,"BSTAR":0.00017034,"MEAN_MOTION_DOT":0.00002105,"MEAN_MOTION_DDOT":0},{"OBJECT_NAME":"ICEYE-X55","OBJECT_ID":"2025-135BF","EPOCH":"2026-07-18T19:37:10.034400","CLASSIFICATION_TYPE":"U","MEAN_MOTION":14.95374509,"ECCENTRICITY":0.0002081,"INCLINATION":97.777,"RA_OF_ASC_NODE":314.3578,"ARG_OF_PERICENTER":218.0752,"MEAN_ANOMALY":142.0322,"EPHEMERIS_TYPE":0,"NORAD_CAT_ID":64581,"ELEMENT_SET_NO":999,"REV_AT_EPOCH":5864,"BSTAR":0.00012576,"MEAN_MOTION_DOT":0.0000133,"MEAN_MOTION_DDOT":0}]}
