ICEYE-X40               
1 60549U 24149CK  26199.16276579  .00001523  00000+0  13359-3 0  9998
2 60549  97.6805 275.1599 0003649 355.3306   4.7882 14.98084258104717
ICEYE-X49               
1 62384U 24247H   26198.33459296  .00001489  00000+0  95972-4 0  9996
2 62384  44.9994 196.3565 0001334 239.0218 121.0529 15.13466886 86748
ICEYE-X47               
1 62389U 24247N   26199.36657629  .00000978  00000+0  67864-4 0  9996
2 62389  44.9960 190.4383 0001076   8.2168 351.8727 15.13492282 86902
ICEYE-X42               
1 62698U 25009CT  26199.79811978  .00000608  00000+0  65747-4 0  9990
2 62698  97.7388 277.5425 0001315  98.2916 261.8452 14.91827191 82003
ICEYE-X41               
1 62700U 25009CV  26199.75642470  .00001602  00000+0  14452-3 0  9990
2 62700  97.7058 278.8249 0000371 199.7918 160.3289 14.96923975 82136
ICEYE-X45               
1 62705U 25009DA  26199.79813826  .00004464  00000+0  35592-3 0  9991
2 62705  97.8411 286.7474 0000875  66.6904 293.4411 15.00843796 82424
ICEYE-X44               
1 62707U 25009DC  26199.78735611  .00001126  00000+0  10505-3 0  9996
2 62707  97.7056 278.4152 0002299  65.7392 294.4069 14.96178255104660
ICEYE-X48               
1 63253U 25052AV  26199.71694976  .00001901  00000+0  16536-3 0  9993
2 63253  97.6840  91.4196 0004264  95.7873 264.3835 14.98139485 73395
ICEYE-X50               
1 63255U 25052AX  26199.80931569  .00000273  00000+0  29856-4 0  9998
2 63255  97.6851  91.0926 0003417  94.9276 265.2335 14.95369903 73373
ICEYE-X51               
1 63257U 25052AZ  26199.85895545  .00002315  00000+0  18671-3 0  9999
2 63257  97.7615  94.8997 0002076  64.8715 295.2724 15.00887067 73555
ICEYE-X46               
1 63258U 25052BA  26199.27071932  .00000496  00000+0  50009-4 0  9992
2 63258  97.6855  90.5638 0001629  80.6198 279.5207 14.95372277 73297
ICEYE-X54               
1 64570U 25135AU  26199.82412233  .00000974  00000+0  94994-4 0  9998
2 64570  97.7748 313.9463 0002322 171.7978 188.3281 14.94742033 58623
ICEYE-X52               
1 64572U 25135AW  26199.82460622  .00000573  00000+0  59561-4 0  9991
2 64572  97.7771 313.7310 0001537 176.8042 183.3187 14.93659203 58608
ICEYE-X56               
1 64574U 25135AY  26199.80905373  .00001789  00000+0  16560-3 0  9999
2 64574  97.7772 314.5260 0001627 175.8632 184.2602 14.95776008 58650
ICEYE-X57               
1 64578U 25135BC  26199.80148376  .00002105  00000+0  17034-3 0  9995
2 64578  97.8032 316.3703 0002117  57.0951 303.0476 15.00854974 58764
ICEYE-X55               
1 64581U 25135BF  26199.81747725  .00001330  00000+0  12576-3 0  9998
2 64581  97.7770 314.3578 0002081 218.0752 142.0322 14.95374509 58644
